NORAD_CAT_ID,OBJECT_NAME,OBJECT_TYPE,EPOCH,MEAN_MOTION,ECCENTRICITY,INCLINATION,RA_OF_ASC_NODE,ARG_OF_PERICENTER,MEAN_ANOMALY,BSTAR,MEAN_MOTION_DOT,MEAN_MOTION_DDOT,TLE_LINE0,TLE_LINE1,TLE_LINE2,SEMIMAJOR_AXIS,PERIOD,APOGEE,PERIGEE,DECAYED
49735.0,STARLINK-3113,PAYLOAD,2024-03-25 02:37:33,15.08869765,0.0001508,53.2148,126.8782,95.0484,265.068,0.001127,0.00017708,0.0,0 STARLINK-3113,1 49735U 21115M   24085.10941978  .00017708  00000-0  11270-2 0  9992,2 49735  53.2148 126.8782 0001508  95.0484 265.0680 15.08869765128622,6917.789,95.436,540.698,538.611,0.0
49735.0,STARLINK-3113,PAYLOAD,2024-03-25 08:59:06,15.0885282,0.0001493,53.2151,125.6872,95.2622,264.8541,0.00040873,6.225e-05,0.0,0 STARLINK-3113,1 49735U 21115M   24085.37437974  .00006225  00000-0  40873-3 0  9991,2 49735  53.2151 125.6872 0001493  95.2622 264.8541 15.08852820128663,6917.841,95.437,540.739,538.673,0.0
49735.0,STARLINK-3113,PAYLOAD,2024-03-25 20:06:48,15.08855033,0.0001485,53.2148,123.6053,93.3934,266.7228,0.00041428,6.314e-05,0.0,0 STARLINK-3113,1 49735U 21115M   24085.83805723  .00006314  00000-0  41428-3 0  9999,2 49735  53.2148 123.6053 0001485  93.3934 266.7228 15.08855033127621,6917.834,95.437,540.727,538.672,0.0
49735.0,STARLINK-3113,PAYLOAD,2024-03-26 05:39:08,15.08812534,0.0001333,53.2148,121.8227,95.4921,264.6223,-0.00053888,-8.847e-05,0.0,0 STARLINK-3113,1 49735U 21115M   24086.23550979 -.00008847  00000-0 -53888-3 0  9992,2 49735  53.2148 121.8227 0001333  95.4921 264.6223 15.08812534128795,6917.964,95.439,540.752,538.907,0.0
49735.0,STARLINK-3113,PAYLOAD,2024-03-26 08:49:54,15.08821211,0.0001466,53.2162,121.2256,110.5296,249.5854,-0.00025883,-4.403e-05,0.0,0 STARLINK-3113,1 49735U 21115M   24086.36799092 -.00004403  00000-0 -25883-3 0  9995,2 49735  53.2162 121.2256 0001466 110.5296 249.5854 15.08821211127702,6917.938,95.439,540.817,538.789,0.0
49735.0,STARLINK-3113,PAYLOAD,2024-03-27 05:29:55,15.08832901,0.0001619,53.2156,117.3602,104.9155,255.2017,0.00034814,5.256e-05,0.0,0 STARLINK-3113,1 49735U 21115M   24087.22911924  .00005256  00000-0  34814-3 0  9990,2 49735  53.2156 117.3602 0001619 104.9155 255.2017 15.08832901128947,6917.902,95.438,540.887,538.647,0.0
49735.0,STARLINK-3113,PAYLOAD,2024-03-27 11:51:28,15.08846605,0.000155,53.2149,116.1713,103.8662,256.2503,0.0011195,0.00017577,0.0,0 STARLINK-3113,1 49735U 21115M   24087.49408180  .00017577  00000-0  11195-2 0  9999,2 49735  53.2149 116.1713 0001550 103.8662 256.2503 15.08846605127872,6917.86,95.437,540.797,538.653,0.0
49735.0,STARLINK-3113,PAYLOAD,2024-03-28 05:20:43,15.08846948,0.0001462,53.2153,112.8953,131.5541,228.5577,0.00028084,4.185e-05,0.0,0 STARLINK-3113,1 49735U 21115M   24088.22272032  .00004185  00000-0  28084-3 0  9993,2 49735  53.2153 112.8953 0001462 131.5541 228.5577 15.08846948129091,6917.859,95.437,540.736,538.713,0.0
49735.0,STARLINK-3113,PAYLOAD,2024-03-28 11:42:15,15.08842025,0.0001359,53.2148,111.7099,100.9502,259.1643,0.00029582,4.423e-05,0.0,0 STARLINK-3113,1 49735U 21115M   24088.48768294  .00004423  00000-0  29582-3 0  9990,2 49735  53.2148 111.7099 0001359 100.9502 259.1643 15.08842025128024,6917.874,95.437,540.679,538.799,0.0
49735.0,STARLINK-3113,PAYLOAD,2024-03-28 18:03:48,15.08848887,0.0001386,53.2156,110.5216,104.4814,255.6332,0.00056388,8.7e-05,0.0,0 STARLINK-3113,1 49735U 21115M   24088.75264170  .00008700  00000-0  56388-3 0  9990,2 49735  53.2156 110.5216 0001386 104.4814 255.6332 15.08848887128068,6917.853,95.437,540.677,538.759,0.0
49735.0,STARLINK-3113,PAYLOAD,2024-03-29 08:22:15,15.08859276,0.0001323,53.2149,107.8447,104.0211,256.0929,0.00054829,8.453e-05,0.0,0 STARLINK-3113,1 49735U 21115M   24089.34879460  .00008453  00000-0  54829-3 0  9993,2 49735  53.2149 107.8447 0001323 104.0211 256.0929 15.08859276129267,6917.821,95.436,540.602,538.771,0.0
49735.0,STARLINK-3113,PAYLOAD,2024-03-30 05:02:15,15.08854378,0.000117,53.2142,103.9794,106.7108,253.4013,8.2117e-05,1.02e-05,0.0,0 STARLINK-3113,1 49735U 21115M   24090.20990732  .00001020  00000-0  82117-4 0  9991,2 49735  53.2142 103.9794 0001170 106.7108 253.4013 15.08854378129393,6917.836,95.437,540.511,538.892,0.0
49735.0,STARLINK-3113,PAYLOAD,2024-03-30 09:48:25,15.08844328,0.0001136,53.2148,103.0873,106.0079,254.1038,0.00026635,3.954e-05,0.0,0 STARLINK-3113,1 49735U 21115M   24090.40863209  .00003954  00000-0  26635-3 0  9991,2 49735  53.2148 103.0873 0001136 106.0079 254.1038 15.08844328129423,6917.867,95.437,540.518,538.946,0.0
49735.0,STARLINK-3113,PAYLOAD,2024-03-30 17:45:20,15.08853218,0.0001098,53.2151,101.6007,95.2926,264.8191,0.00010185,1.334e-05,0.0,0 STARLINK-3113,1 49735U 21115M   24090.73982558  .00001334  00000-0  10185-3 0  9999,2 49735  53.2151 101.6007 0001098  95.2926 264.8191 15.08853218128365,6917.84,95.437,540.465,538.945,0.0
49735.0,STARLINK-3113,PAYLOAD,2024-03-31 08:03:49,15.08846899,0.000144,53.2174,98.9262,97.03,263.0856,-2.1502e-05,-6.3e-06,0.0,0 STARLINK-3113,1 49735U 21115M   24091.33599306 -.00000630  00000-0 -21502-4 0  9997,2 49735  53.2174  98.9262 0001440  97.0300 263.0856 15.08846899129567,6917.859,95.437,540.72,538.728,0.0
49735.0,STARLINK-3113,PAYLOAD,2024-03-31 17:36:07,15.08850858,0.0001147,53.2158,97.1388,84.8391,275.2732,6.1405e-05,6.9e-06,0.0,0 STARLINK-3113,1 49735U 21115M   24091.73342565  .00000690  00000-0  61405-4 0  9994,2 49735  53.2158  97.1388 0001147  84.8391 275.2732 15.08850858128519,6917.847,95.437,540.506,538.919,0.0
49735.0,STARLINK-3113,PAYLOAD,2024-04-01 09:30:00,15.08839163,0.0001331,53.2167,94.1664,86.3287,273.7857,4.6197e-05,4.47e-06,0.0,0 STARLINK-3113,1 49735U 21115M   24092.39583426  .00000447  00000-0  46197-4 0  9991,2 49735  53.2167  94.1664 0001331  86.3287 273.7857 15.08839163129720,6917.883,95.438,540.669,538.827,0.0
49735.0,STARLINK-3113,PAYLOAD,2024-04-02 09:20:46,15.08848286,0.0001524,53.2161,89.7066,81.2778,278.8387,0.00023776,3.499e-05,0.0,0 STARLINK-3113,1 49735U 21115M   24093.38942950  .00003499  00000-0  23776-3 0  9999,2 49735  53.2161  89.7066 0001524  81.2778 278.8387 15.08848286128766,6917.855,95.437,540.774,538.666,0.0
49735.0,STARLINK-3113,PAYLOAD,2024-04-02 17:17:42,15.08851175,0.0001428,53.2162,88.2194,94.8982,265.2173,0.00026378,3.914e-05,0.0,0 STARLINK-3113,1 49735U 21115M   24093.72062678  .00003914  00000-0  26378-3 0  9990,2 49735  53.2162  88.2194 0001428  94.8982 265.2173 15.08851175129926,6917.846,95.437,540.699,538.723,0.0
49735.0,STARLINK-3113,PAYLOAD,2024-04-03 06:00:48,15.08837155,0.0001522,53.217,85.8415,85.4184,274.6982,0.00030507,4.57e-05,0.0,0 STARLINK-3113,1 49735U 21115M   24094.25055583  .00004570  00000-0  30507-3 0  9994,2 49735  53.2170  85.8415 0001522  85.4184 274.6982 15.08837155130004,6917.889,95.438,540.807,538.701,0.0
49735.0,STARLINK-3113,PAYLOAD,2024-04-04 09:02:20,15.08840955,0.0001576,53.2178,80.7851,89.0814,271.0358,-1.7617e-05,-5.68e-06,0.0,0 STARLINK-3113,1 49735U 21115M   24095.37663105 -.00000568  00000-0 -17617-4 0  9996,2 49735  53.2178  80.7851 0001576  89.0814 271.0358 15.08840955130177,6917.877,95.437,540.833,538.652,0.0
49735.0,STARLINK-3113,PAYLOAD,2024-04-05 08:53:07,15.08841044,0.0001353,53.2174,76.3233,85.0307,275.0839,0.00010602,1.4e-05,0.0,0 STARLINK-3113,1 49735U 21115M   24096.37023041  .00001400  00000-0  10602-3 0  9996,2 49735  53.2174  76.3233 0001353  85.0307 275.0839 15.08841044129215,6917.877,95.437,540.678,538.806,0.0
49735.0,STARLINK-3113,PAYLOAD,2024-04-05 21:36:12,15.0884054,0.0001551,53.2185,73.9476,103.1144,257.0021,0.00012689,1.732e-05,0.0,0 STARLINK-3113,1 49735U 21115M   24096.90014926  .00001732  00000-0  12689-3 0  9992,2 49735  53.2185  73.9476 0001551 103.1144 257.0021 15.08840540130406,6917.879,95.438,540.817,538.671,0.0
49735.0,STARLINK-3113,PAYLOAD,2024-04-06 05:33:09,15.08833304,0.0001521,53.219,72.461,109.3223,250.7934,4.3511e-06,-2.19e-06,0.0,0 STARLINK-3113,1 49735U 21115M   24097.23135727 -.00000219  00000-0  43511-5 0  9992,2 49735  53.2190  72.4610 0001521 109.3223 250.7934 15.08833304130457,6917.901,95.438,540.818,538.714,0.0
49735.0,STARLINK-3113,PAYLOAD,2024-04-06 15:05:27,15.08838272,0.0001558,53.2201,70.6771,105.4383,254.6781,2.3945e-05,9.3e-07,0.0,0 STARLINK-3113,1 49735U 21115M   24097.62879525  .00000093  00000-0  23945-4 0  9993,2 49735  53.2201  70.6771 0001558 105.4383 254.6781 15.08838272129407,6917.886,95.438,540.828,538.673,0.0
49735.0,STARLINK-3113,PAYLOAD,2024-04-07 06:59:19,15.08833133,0.0001598,53.2194,67.7027,97.5069,262.6105,-1.3404e-05,-5.01e-06,0.0,0 STARLINK-3113,1 49735U 21115M   24098.29120322 -.00000501  00000-0 -13404-4 0  9996,2 49735  53.2194  67.7027 0001598  97.5069 262.6105 15.08833133130610,6917.901,95.438,540.872,538.661,0.0
49735.0,STARLINK-3113,PAYLOAD,2024-04-07 14:56:15,15.08835033,0.0001686,53.2196,66.2147,92.0483,268.0703,-4.3887e-05,-9.86e-06,0.0,0 STARLINK-3113,1 49735U 21115M   24098.62240463 -.00000986  00000-0 -43887-4 0  9997,2 49735  53.2196  66.2147 0001686  92.0483 268.0703 15.08835033129553,6917.896,95.438,540.927,538.594,0.0
49735.0,STARLINK-3113,PAYLOAD,2024-04-08 03:39:20,15.08839503,0.0001647,53.2198,63.8345,97.2764,262.8415,0.00011971,1.618e-05,0.0,0 STARLINK-3113,1 49735U 21115M   24099.15231770  .00001618  00000-0  11971-3 0  9996,2 49735  53.2198  63.8345 0001647  97.2764 262.8415 15.08839503130745,6917.882,95.438,540.886,538.608,0.0
49735.0,STARLINK-3113,PAYLOAD,2024-04-08 14:47:01,15.08853739,0.0001475,53.219,61.7514,82.6897,277.4263,9.2905e-05,1.191e-05,0.0,0 STARLINK-3113,1 49735U 21115M   24099.61598853  .00001191  00000-0  92905-4 0  9998,2 49735  53.2190  61.7514 0001475  82.6897 277.4263 15.08853739129700,6917.838,95.437,540.724,538.683,0.0
49735.0,STARLINK-3113,PAYLOAD,2024-04-09 03:30:07,15.08833162,0.000124,53.2183,59.3748,93.0287,267.0847,0.00011078,1.475e-05,0.0,0 STARLINK-3113,1 49735U 21115M   24100.14592257  .00001475  00000-0  11078-3 0  9997,2 49735  53.2183  59.3748 0001240  93.0287 267.0847 15.08833162130896,6917.901,95.438,540.624,538.908,0.0
